[{"OBJECT_NAME":"STARLINK-5933","OBJECT_ID":"2023-037AZ","EPOCH":"2026-03-09T22:41:03.525216","MEAN_MOTION":14.98330477,"ECCENTRICITY":0.00027263,"INCLINATION":69.998,"RA_OF_ASC_NODE":263.7225,"ARG_OF_PERICENTER":270.5332,"MEAN_ANOMALY":89.5515,"EPHEMERIS_TYPE":0,"CLASSIFICATION_TYPE":"U","NORAD_CAT_ID":55961,"ELEMENT_SET_NO":999,"REV_AT_EPOCH":16451,"BSTAR":1.9695852e-5,"MEAN_MOTION_DOT":1.42e-6,"MEAN_MOTION_DDOT":0},{"OBJECT_NAME":"PEGASUS DEB","OBJECT_ID":"1994-029BC","EPOCH":"2026-03-09T22:00:19.479168","MEAN_MOTION":15.02669201,"ECCENTRICITY":0.00619411,"INCLINATION":81.9229,"RA_OF_ASC_NODE":10.1044,"ARG_OF_PERICENTER":202.7728,"MEAN_ANOMALY":222.9696,"EPHEMERIS_TYPE":0,"CLASSIFICATION_TYPE":"U","NORAD_CAT_ID":24007,"ELEMENT_SET_NO":999,"REV_AT_EPOCH":60998,"BSTAR":0.00034526552,"MEAN_MOTION_DOT":4.826e-5,"MEAN_MOTION_DDOT":0}]
